NORAD_CAT_ID,OBJECT_NAME,OBJECT_TYPE,EPOCH,MEAN_MOTION,ECCENTRICITY,INCLINATION,RA_OF_ASC_NODE,ARG_OF_PERICENTER,MEAN_ANOMALY,BSTAR,MEAN_MOTION_DOT,MEAN_MOTION_DDOT,TLE_LINE0,TLE_LINE1,TLE_LINE2,SEMIMAJOR_AXIS,PERIOD,APOGEE,PERIGEE,DECAYED
52869.0,STARLINK-4266,PAYLOAD,2023-06-09 09:01:10,15.08841143,0.0001341,53.2147,202.6619,83.0862,277.0283,5.6059e-05,6.04e-06,0.0,0 STARLINK-4266,1 52869U 22062AR  23160.37582070  .00000604  00000-0  56059-4 0  9995,2 52869  53.2147 202.6619 0001341  83.0862 277.0283 15.08841143 54931,6917.877,95.437,540.67,538.814,0.0
52869.0,STARLINK-4266,PAYLOAD,2023-06-09 20:08:54,15.08779935,0.0002483,53.2142,200.5801,79.8216,280.3056,0.00091702,0.00014313,0.0,0 STARLINK-4266,1 52869U 22062AR  23160.83952240  .00014313  00000-0  91702-3 0  9991,2 52869  53.2142 200.5801 0002483  79.8216 280.3056 15.08779935 54518,6918.064,95.441,541.647,538.211,0.0
52869.0,STARLINK-4266,PAYLOAD,2023-06-10 12:02:44,15.08848039,0.0001243,53.2147,197.6061,93.0092,267.1043,-4.4198e-05,-9.91e-06,0.0,0 STARLINK-4266,1 52869U 22062AR  23161.50189815 -.00000991  00000-0 -44198-4 0  9993,2 52869  53.2147 197.6061 0001243  93.0092 267.1043 15.08848039 54612,6917.856,95.437,540.581,538.861,0.0
52869.0,STARLINK-4266,PAYLOAD,2023-06-10 19:59:39,15.08840708,0.0001204,53.2147,196.1195,85.5758,274.5371,5.1429e-05,5.31e-06,0.0,0 STARLINK-4266,1 52869U 22062AR  23161.83310087  .00000531  00000-0  51429-4 0  9999,2 52869  53.2147 196.1195 0001204  85.5758 274.5371 15.08840708 54662,6917.878,95.438,540.576,538.91,0.0
52869.0,STARLINK-4266,PAYLOAD,2023-06-11 02:21:12,15.08839711,0.0001203,53.2147,194.9301,85.344,274.7689,6.3755e-05,7.27e-06,0.0,0 STARLINK-4266,1 52869U 22062AR  23162.09806120  .00000727  00000-0  63755-4 0  9998,2 52869  53.2147 194.9301 0001203  85.3440 274.7689 15.08839711 55197,6917.881,95.438,540.578,538.914,0.0
52869.0,STARLINK-4266,PAYLOAD,2023-06-11 11:53:31,15.08842478,0.0001214,53.2149,193.1458,86.4106,273.7025,7.0843e-05,8.4e-06,0.0,0 STARLINK-4266,1 52869U 22062AR  23162.49549949  .00000840  00000-0  70843-4 0  9997,2 52869  53.2149 193.1458 0001214  86.4106 273.7025 15.08842478 54765,6917.873,95.437,540.578,538.898,0.0
52869.0,STARLINK-4266,PAYLOAD,2023-06-12 08:33:32,15.08840559,0.0001207,53.2149,189.2798,87.2527,272.8603,6.1004e-05,6.83e-06,0.0,0 STARLINK-4266,1 52869U 22062AR  23163.35662042  .00000683  00000-0  61004-4 0  9997,2 52869  53.2149 189.2798 0001207  87.2527 272.8603 15.08840559 55385,6917.879,95.438,540.579,538.909,0.0
52869.0,STARLINK-4266,PAYLOAD,2023-06-12 11:44:18,15.08840893,0.0001209,53.215,188.6852,86.8185,273.2946,4.8314e-05,4.81e-06,0.0,0 STARLINK-4266,1 52869U 22062AR  23163.48910043  .00000481  00000-0  48314-4 0  9993,2 52869  53.2150 188.6852 0001209  86.8185 273.2946 15.08840893 54912,6917.878,95.437,540.579,538.906,0.0
52869.0,STARLINK-4266,PAYLOAD,2023-06-13 17:56:38,15.08835213,0.0001187,53.2153,183.0345,84.7312,275.3815,-3.8231e-06,-3.49e-06,0.0,0 STARLINK-4266,1 52869U 22062AR  23164.74766720 -.00000349  00000-0 -38231-5 0  9997,2 52869  53.2153 183.0345 0001187  84.7312 275.3815 15.08835213 55598,6917.895,95.438,540.581,538.939,0.0
52869.0,STARLINK-4266,PAYLOAD,2023-06-14 01:53:34,15.08837422,0.0001143,53.2149,181.5477,84.8366,275.2757,2.1434e-05,5.3e-07,0.0,0 STARLINK-4266,1 52869U 22062AR  23165.07886593  .00000053  00000-0  21434-4 0  9991,2 52869  53.2149 181.5477 0001143  84.8366 275.2757 15.08837422 55154,6917.888,95.438,540.544,538.963,0.0
52869.0,STARLINK-4266,PAYLOAD,2023-06-14 17:47:25,15.08838124,0.0001146,53.2149,178.5738,82.4303,277.6819,5.4393e-05,5.78e-06,0.0,0 STARLINK-4266,1 52869U 22062AR  23165.74126574  .00000578  00000-0  54393-4 0  9993,2 52869  53.2149 178.5738 0001146  82.4303 277.6819 15.08838124 55254,6917.886,95.438,540.544,538.958,0.0
52869.0,STARLINK-4266,PAYLOAD,2023-06-15 00:08:58,15.08833567,0.000112,53.2149,177.3851,91.0657,269.0463,5.842e-05,6.42e-06,0.0,0 STARLINK-4266,1 52869U 22062AR  23166.00622896  .00000642  00000-0  58420-4 0  9998,2 52869  53.2149 177.3851 0001120  91.0657 269.0463 15.08833567 55781,6917.9,95.438,540.54,538.99,0.0
52869.0,STARLINK-4266,PAYLOAD,2023-06-15 08:05:53,15.08834506,0.0001114,53.2148,175.8981,89.9449,270.1671,4.068e-05,3.6e-06,0.0,0 STARLINK-4266,1 52869U 22062AR  23166.33743017  .00000360  00000-0  40680-4 0  9999,2 52869  53.2148 175.8981 0001114  89.9449 270.1671 15.08834506 55345,6917.897,95.438,540.533,538.992,0.0
52869.0,STARLINK-4266,PAYLOAD,2023-06-15 17:38:12,15.08837172,0.0001121,53.2149,174.1139,88.4283,271.6838,6.4291e-05,7.35e-06,0.0,0 STARLINK-4266,1 52869U 22062AR  23166.73486896  .00000735  00000-0  64291-4 0  9992,2 52869  53.2149 174.1139 0001121  88.4283 271.6838 15.08837172 55401,6917.889,95.438,540.53,538.979,0.0
52869.0,STARLINK-4266,PAYLOAD,2023-06-16 01:35:08,15.08840006,0.0001115,53.2148,172.627,88.6984,271.4136,6.0995e-05,6.83e-06,0.0,0 STARLINK-4266,1 52869U 22062AR  23167.06606753  .00000683  00000-0  60995-4 0  9994,2 52869  53.2148 172.6270 0001115  88.6984 271.4136 15.08840006 55940,6917.88,95.438,540.517,538.974,0.0
52869.0,STARLINK-4266,PAYLOAD,2023-06-16 09:32:03,15.08842959,0.0001133,53.2148,171.14,87.6005,272.5117,8.4533e-05,1.058e-05,0.0,0 STARLINK-4266,1 52869U 22062AR  23167.39726517  .00001058  00000-0  84533-4 0  9992,2 52869  53.2148 171.1400 0001133  87.6005 272.5117 15.08842959 55504,6917.871,95.437,540.52,538.953,0.0
52869.0,STARLINK-4266,PAYLOAD,2023-06-16 17:28:59,15.08839749,0.0001183,53.2149,169.653,83.4551,276.6576,5.4534e-05,5.8e-06,0.0,0 STARLINK-4266,1 52869U 22062AR  23167.72846811  .00000580  00000-0  54534-4 0  9996,2 52869  53.2149 169.6530 0001183  83.4551 276.6576 15.08839749 55558,6917.881,95.438,540.565,538.928,0.0
52869.0,STARLINK-4266,PAYLOAD,2023-06-17 09:22:51,15.08839263,0.0001173,53.2148,166.6789,84.3481,275.7645,5.8032e-05,6.36e-06,0.0,0 STARLINK-4266,1 52869U 22062AR  23168.39086869  .00000636  00000-0  58032-4 0  9998,2 52869  53.2148 166.6789 0001173  84.3481 275.7645 15.08839263 56145,6917.883,95.438,540.559,538.936,0.0
52869.0,STARLINK-4266,PAYLOAD,2023-06-18 06:02:51,15.0884129,0.0001176,53.2151,162.8128,84.5662,275.5465,3.4511e-05,2.61e-06,0.0,0 STARLINK-4266,1 52869U 22062AR  23169.25198787  .00000261  00000-0  34511-4 0  9997,2 52869  53.2151 162.8128 0001176  84.5662 275.5465 15.08841290 55780,6917.876,95.437,540.555,538.928,0.0
52869.0,STARLINK-4266,PAYLOAD,2023-06-18 17:10:33,15.08841723,0.0001177,53.2152,160.7314,84.1919,275.9207,4.018e-05,3.52e-06,0.0,0 STARLINK-4266,1 52869U 22062AR  23169.71566690  .00000352  00000-0  40180-4 0  9990,2 52869  53.2152 160.7314 0001177  84.1919 275.9207 15.08841723 56349,6917.875,95.437,540.554,538.926,0.0
52869.0,STARLINK-4266,PAYLOAD,2023-06-19 09:04:25,15.08840278,0.0001216,53.2155,157.7581,84.8611,275.2519,5.1077e-05,5.25e-06,0.0,0 STARLINK-4266,1 52869U 22062AR  23170.37806753  .00000525  00000-0  51077-4 0  9990,2 52869  53.2155 157.7581 0001216  84.8611 275.2519 15.08840278 55953,6917.88,95.438,540.586,538.903,0.0
52869.0,STARLINK-4266,PAYLOAD,2023-06-19 23:22:53,15.0883646,0.0001243,53.2156,155.0816,86.8335,273.28,2.0439e-05,3.7e-07,0.0,0 STARLINK-4266,1 52869U 22062AR  23170.97423136  .00000037  00000-0  20439-4 0  9992,2 52869  53.2156 155.0816 0001243  86.8335 273.2800 15.08836460 56535,6917.891,95.438,540.616,538.896,0.0
52869.0,STARLINK-4266,PAYLOAD,2023-06-20 08:55:12,15.08837103,0.0001246,53.2157,153.2978,86.0085,274.105,2.1703e-05,5.8e-07,0.0,0 STARLINK-4266,1 52869U 22062AR  23171.37167143  .00000058  00000-0  21703-4 0  9998,2 52869  53.2157 153.2978 0001246  86.0085 274.1050 15.08837103 56107,6917.889,95.438,540.616,538.892,0.0
52869.0,STARLINK-4266,PAYLOAD,2023-06-20 21:38:17,15.08836932,0.0001251,53.2157,150.9189,85.9951,274.1184,1.739e-05,-1.1e-07,0.0,0 STARLINK-4266,1 52869U 22062AR  23171.90159271 -.00000011  00000-0  17390-4 0  9997,2 52869  53.2157 150.9189 0001251  85.9951 274.1184 15.08836932 56186,6917.89,95.438,540.62,538.889,0.0
52869.0,STARLINK-4266,PAYLOAD,2023-06-21 02:24:26,15.08839198,0.0001228,53.2155,150.0269,86.1674,273.9458,3.5877e-05,2.83e-06,0.0,0 STARLINK-4266,1 52869U 22062AR  23172.10031080  .00000283  00000-0  35877-4 0  9997,2 52869  53.2155 150.0269 0001228  86.1674 273.9458 15.08839198 56709,6917.883,95.438,540.597,538.898,0.0
52869.0,STARLINK-4266,PAYLOAD,2023-06-21 08:45:59,15.08841249,0.0001243,53.2156,148.8374,85.6208,274.4926,5.224e-05,5.44e-06,0.0,0 STARLINK-4266,1 52869U 22062AR  23172.36526924  .00000544  00000-0  52240-4 0  9994,2 52869  53.2156 148.8374 0001243  85.6208 274.4926 15.08841249 56252,6917.877,95.437,540.601,538.882,0.0
52869.0,STARLINK-4266,PAYLOAD,2023-06-21 15:07:32,15.08835746,0.0001246,53.2156,147.6475,84.657,275.4564,2.3257e-05,8.2e-07,0.0,0 STARLINK-4266,1 52869U 22062AR  23172.63023401  .00000082  00000-0  23257-4 0  9999,2 52869  53.2156 147.6475 0001246  84.6570 275.4564 15.08835746 56293,6917.893,95.438,540.62,538.896,0.0
52869.0,STARLINK-4266,PAYLOAD,2023-06-22 02:15:14,15.08833992,0.0001222,53.2157,145.5665,87.5036,272.6096,2.1055e-05,4.7e-07,0.0,0 STARLINK-4266,1 52869U 22062AR  23173.09391675  .00000047  00000-0  21055-4 0  9996,2 52869  53.2157 145.5665 0001222  87.5036 272.6096 15.08833992 56857,6917.899,95.438,540.609,538.918,0.0
52869.0,STARLINK-4266,PAYLOAD,2023-06-23 06:52:10,15.08843578,0.000122,53.2157,140.2143,95.9395,264.1736,7.1706e-05,8.54e-06,0.0,0 STARLINK-4266,1 52869U 22062AR  23174.28623143  .00000854  00000-0  71706-4 0  9990,2 52869  53.2157 140.2143 0001220  95.9395 264.1736 15.08843578 57038,6917.869,95.437,540.578,538.89,0.0
52869.0,STARLINK-4266,PAYLOAD,2023-06-23 14:49:06,15.08838677,0.0001158,53.2152,138.7274,104.9614,255.1506,-2.1818e-05,-6.35e-06,0.0,0 STARLINK-4266,1 52869U 22062AR  23174.61743734 -.00000635  00000-0 -21818-4 0  9994,2 52869  53.2152 138.7274 0001158 104.9614 255.1506 15.08838677 57089,6917.884,95.438,540.551,538.948,0.0
